{
  "type": "FeatureCollection",
  "features": [
    {
      "type": "Feature",
      "properties": {
        "norad_id": 64694,
        "name": "GOSAT-GW (IBUKI GW)",
        "group": "resource",
        "lat": -56.81434164658842,
        "lon": -53.51295327229702,
        "alt_km": 676.7070644247333,
        "timestamp": "2025-12-24T16:52:41.158344+00:00",
        "meta_object_name": "GOSAT-GW (IBUKI GW)",
        "meta_object_id": "2025-141A",
        "meta_epoch": "2025-12-24T07:19:20.988192",
        "meta_mean_motion": 14.67557236,
        "meta_eccentricity": 0.00014297,
        "meta_inclination": 98.0436,
        "meta_ra_of_asc_node": 293.6092,
        "meta_arg_of_pericenter": 82.0867,
        "meta_mean_anomaly": 278.05,
        "meta_ephemeris_type": 0,
        "meta_classification_type": "U",
        "meta_norad_cat_id": 64694,
        "meta_element_set_no": 999,
        "meta_rev_at_epoch": 2619,
        "meta_bstar": 0.00018535278,
        "meta_mean_motion_dot": 1.004e-05,
        "meta_mean_motion_ddot": 0,
        "tle_line1": "1 64694U 25141A   25358.30510403  .00001004  00000+0  18535-3 0  9990",
        "tle_line2": "2 64694  98.0436 293.6092 0001429  82.0867 278.0500 14.67557236 26195"
      },
      "geometry": {
        "type": "Point",
        "coordinates": [
          -53.51295327229702,
          -56.81434164658842
        ]
      }
    },
    {
      "type": "Feature",
      "properties": {
        "norad_id": 64876,
        "name": "IONOSFERA-M 3",
        "group": "resource",
        "lat": 57.13456037983179,
        "lon": 153.7453402405387,
        "alt_km": 814.7606485370061,
        "timestamp": "2025-12-24T16:52:41.158354+00:00",
        "meta_object_name": "IONOSFERA-M 3",
        "meta_object_id": "2025-155A",
        "meta_epoch": "2025-12-24T07:51:37.397952",
        "meta_mean_motion": 14.21443746,
        "meta_eccentricity": 0.00018749,
        "meta_inclination": 98.5799,
        "meta_ra_of_asc_node": 319.8665,
        "meta_arg_of_pericenter": 41.197,
        "meta_mean_anomaly": 318.9349,
        "meta_ephemeris_type": 0,
        "meta_classification_type": "U",
        "meta_norad_cat_id": 64876,
        "meta_element_set_no": 999,
        "meta_rev_at_epoch": 2156,
        "meta_bstar": 5.3658434e-05,
        "meta_mean_motion_dot": 7.5e-07,
        "meta_mean_motion_ddot": 0,
        "tle_line1": "1 64876U 25155A   25358.32751618  .00000075  00000+0  53658-4 0  9997",
        "tle_line2": "2 64876  98.5799 319.8665 0001874  41.1970 318.9349 14.21443746 21567"
      },
      "geometry": {
        "type": "Point",
        "coordinates": [
          153.7453402405387,
          57.13456037983179
        ]
      }
    },
    {
      "type": "Feature",
      "properties": {
        "norad_id": 64877,
        "name": "IONOSFERA-M 4",
        "group": "resource",
        "lat": -56.610345234956334,
        "lon": -26.60744991768483,
        "alt_km": 827.813189397787,
        "timestamp": "2025-12-24T16:52:41.158364+00:00",
        "meta_object_name": "IONOSFERA-M 4",
        "meta_object_id": "2025-155B",
        "meta_epoch": "2025-12-24T07:00:44.581824",
        "meta_mean_motion": 14.21444863,
        "meta_eccentricity": 0.00013092,
        "meta_inclination": 98.58,
        "meta_ra_of_asc_node": 319.7516,
        "meta_arg_of_pericenter": 52.3837,
        "meta_mean_anomaly": 307.746,
        "meta_ephemeris_type": 0,
        "meta_classification_type": "U",
        "meta_norad_cat_id": 64877,
        "meta_element_set_no": 999,
        "meta_rev_at_epoch": 2155,
        "meta_bstar": 5.2511984e-05,
        "meta_mean_motion_dot": 7.2e-07,
        "meta_mean_motion_ddot": 0,
        "tle_line1": "1 64877U 25155B   25358.29218266  .00000072  00000+0  52512-4 0  9996",
        "tle_line2": "2 64877  98.5800 319.7516 0001309  52.3837 307.7460 14.21444863 21554"
      },
      "geometry": {
        "type": "Point",
        "coordinates": [
          -26.60744991768483,
          -56.610345234956334
        ]
      }
    },
    {
      "type": "Feature",
      "properties": {
        "norad_id": 64899,
        "name": "MICROCARB",
        "group": "resource",
        "lat": 64.93741784087793,
        "lon": -88.63963716212947,
        "alt_km": 635.7761404622333,
        "timestamp": "2025-12-24T16:52:41.158375+00:00",
        "meta_object_name": "MICROCARB",
        "meta_object_id": "2025-156A",
        "meta_epoch": "2025-12-24T04:56:40.665408",
        "meta_mean_motion": 14.72075083,
        "meta_eccentricity": 0.00176076,
        "meta_inclination": 98.0011,
        "meta_ra_of_asc_node": 73.367,
        "meta_arg_of_pericenter": 110.3867,
        "meta_mean_anomaly": 249.9233,
        "meta_ephemeris_type": 0,
        "meta_classification_type": "U",
        "meta_norad_cat_id": 64899,
        "meta_element_set_no": 999,
        "meta_rev_at_epoch": 2222,
        "meta_bstar": 0.00012288483,
        "meta_mean_motion_dot": 7.25e-06,
        "meta_mean_motion_ddot": 0,
        "tle_line1": "1 64899U 25156A   25358.20602622  .00000725  00000+0  12288-3 0  9995",
        "tle_line2": "2 64899  98.0011  73.3670 0017607 110.3867 249.9233 14.72075083 22227"
      },
      "geometry": {
        "type": "Point",
        "coordinates": [
          -88.63963716212947,
          64.93741784087793
        ]
      }
    },
    {
      "type": "Feature",
      "properties": {
        "norad_id": 64900,
        "name": "CO3D 3",
        "group": "resource",
        "lat": 63.790449353548645,
        "lon": 59.518011987660174,
        "alt_km": 498.0845534584205,
        "timestamp": "2025-12-24T16:52:41.158385+00:00",
        "meta_object_name": "CO3D 3",
        "meta_object_id": "2025-156B",
        "meta_epoch": "2025-12-24T07:06:56.775744",
        "meta_mean_motion": 15.20214899,
        "meta_eccentricity": 0.00013181,
        "meta_inclination": 97.4337,
        "meta_ra_of_asc_node": 74.498,
        "meta_arg_of_pericenter": 75.2062,
        "meta_mean_anomaly": 284.9319,
        "meta_ephemeris_type": 0,
        "meta_classification_type": "U",
        "meta_norad_cat_id": 64900,
        "meta_element_set_no": 999,
        "meta_rev_at_epoch": 2296,
        "meta_bstar": 0.00031957382,
        "meta_mean_motion_dot": 6.859e-05,
        "meta_mean_motion_ddot": 0,
        "tle_line1": "1 64900U 25156B   25358.29649046  .00006859  00000+0  31957-3 0  9996",
        "tle_line2": "2 64900  97.4337  74.4980 0001318  75.2062 284.9319 15.20214899 22967"
      },
      "geometry": {
        "type": "Point",
        "coordinates": [
          59.518011987660174,
          63.790449353548645
        ]
      }
    },
    {
      "type": "Feature",
      "properties": {
        "norad_id": 64901,
        "name": "CO3D 4",
        "group": "resource",
        "lat": 62.97952071935062,
        "lon": 60.064731531437594,
        "alt_km": 499.1246428209488,
        "timestamp": "2025-12-24T16:52:41.158396+00:00",
        "meta_object_name": "CO3D 4",
        "meta_object_id": "2025-156C",
        "meta_epoch": "2025-12-24T07:07:09.848928",
        "meta_mean_motion": 15.20217883,
        "meta_eccentricity": 0.00014166,
        "meta_inclination": 97.4336,
        "meta_ra_of_asc_node": 74.4981,
        "meta_arg_of_pericenter": 159.4724,
        "meta_mean_anomaly": 200.6569,
        "meta_ephemeris_type": 0,
        "meta_classification_type": "U",
        "meta_norad_cat_id": 64901,
        "meta_element_set_no": 999,
        "meta_rev_at_epoch": 2296,
        "meta_bstar": 0.00033993773,
        "meta_mean_motion_dot": 7.302e-05,
        "meta_mean_motion_ddot": 0,
        "tle_line1": "1 64901U 25156C   25358.29664177  .00007302  00000+0  33994-3 0  9996",
        "tle_line2": "2 64901  97.4336  74.4981 0001416 159.4724 200.6569 15.20217883 22965"
      },
      "geometry": {
        "type": "Point",
        "coordinates": [
          60.064731531437594,
          62.97952071935062
        ]
      }
    },
    {
      "type": "Feature",
      "properties": {
        "norad_id": 64902,
        "name": "CO3D 2",
        "group": "resource",
        "lat": -65.34736492210696,
        "lon": -121.73059626966221,
        "alt_km": 512.9840396187137,
        "timestamp": "2025-12-24T16:52:41.158406+00:00",
        "meta_object_name": "CO3D 2",
        "meta_object_id": "2025-156D",
        "meta_epoch": "2025-12-24T06:19:08.988672",
        "meta_mean_motion": 15.20213833,
        "meta_eccentricity": 8.009e-05,
        "meta_inclination": 97.4336,
        "meta_ra_of_asc_node": 74.364,
        "meta_arg_of_pericenter": 69.0736,
        "meta_mean_anomaly": 291.0585,
        "meta_ephemeris_type": 0,
        "meta_classification_type": "U",
        "meta_norad_cat_id": 64902,
        "meta_element_set_no": 999,
        "meta_rev_at_epoch": 2295,
        "meta_bstar": 0.00028298392,
        "meta_mean_motion_dot": 6.065e-05,
        "meta_mean_motion_ddot": 0,
        "tle_line1": "1 64902U 25156D   25358.26329848  .00006065  00000+0  28298-3 0  9993",
        "tle_line2": "2 64902  97.4336  74.3640 0000800  69.0736 291.0585 15.20213833 22954"
      },
      "geometry": {
        "type": "Point",
        "coordinates": [
          -121.73059626966221,
          -65.34736492210696
        ]
      }
    }
  ]
}